OBJECT_NAME,OBJECT_ID,EPOCH,MEAN_MOTION,ECCENTRICITY,INCLINATION,RA_OF_ASC_NODE,ARG_OF_PERICENTER,MEAN_ANOMALY,EPHEMERIS_TYPE,CLASSIFICATION_TYPE,NORAD_CAT_ID,ELEMENT_SET_NO,REV_AT_EPOCH,BSTAR,MEAN_MOTION_DOT,MEAN_MOTION_DDOT
TIANMU-1 21,2023-208C,2026-07-14T19:36:04.659840,15.35547983,.0006648,97.4532,315.7340,205.5309,154.5607,0,U,58662,999,14180,.16663E-3,.5677E-4,0
TIANMU-1 22,2023-208D,2026-07-14T20:17:55.434336,15.31424010,.0002717,97.4525,312.2093,219.8955,140.2086,0,U,58663,999,14156,.14108E-3,.4202E-4,0
TIANMU-1 15,2024-004A,2026-07-14T19:40:12.202752,15.26911453,.0006026,97.4666,22.0102,229.9728,130.0983,0,U,58700,999,13999,.11715E-3,.3022E-4,0
TIANMU-1 16,2024-004B,2026-07-14T20:59:26.024064,15.27014823,.000444,97.4614,21.2820,247.1231,112.9539,0,U,58701,999,14000,.11148E-3,.2881E-4,0
TIANMU-1 17,2024-004C,2026-07-14T20:38:31.648128,15.27012768,.0003906,97.4640,21.7626,253.6667,106.4142,0,U,58702,999,13999,.11737E-3,.3037E-4,0
TIANMU-1 18,2024-004D,2026-07-14T20:04:04.028736,15.26927849,.0003733,97.4658,22.0013,226.2071,133.8860,0,U,58703,999,13999,.11295E-3,.2912E-4,0
INSAT-3DS,2024-033A,2026-07-14T18:56:28.390272,1.00270923,.0001053,0.0925,264.7764,224.9359,169.1209,0,U,58990,999,4734,0,-.164E-5,0
METEOR-M2 4,2024-039A,2026-07-14T19:52:03.706752,14.22432140,.0008253,98.7025,154.7807,89.6684,270.5439,0,U,59051,999,12319,.15452E-4,-.9E-7,0
GOES 19,2024-119A,2026-07-14T18:11:25.991808,1.00271581,.0000425,0.0072,128.6667,85.6593,275.9494,0,U,60133,999,724,0,-.257E-5,0
MTG-S1,2025-143A,2026-07-14T18:32:54.583008,1.00273434,.0003464,0.5846,345.0208,261.5494,323.8774,0,U,64723,999,369,0,-.15E-6,0
METOP-SGA1,2025-172A,2026-07-14T18:20:46.629312,14.19819127,.0007099,98.6631,254.9090,333.3306,26.7504,0,U,65159,999,4770,.29163E-4,.19E-6,0
FENGYUN 3H,2025-219A,2026-07-14T19:18:46.256256,14.19924781,.0001158,98.6771,136.0376,62.6327,297.4968,0,U,65815,999,4130,.23672E-4,.7E-7,0
