TIANMU-1 21             
1 58662U 23208C   26195.81672060  .00005677  00000+0  16663-3 0  9994
2 58662  97.4532 315.7340 0006648 205.5309 154.5607 15.35547983141802
TIANMU-1 22             
1 58663U 23208D   26195.84578049  .00004202  00000+0  14108-3 0  9995
2 58663  97.4525 312.2093 0002717 219.8955 140.2086 15.31424010141567
TIANMU-1 15             
1 58700U 24004A   26195.81958568  .00003022  00000+0  11715-3 0  9997
2 58700  97.4666  22.0102 0006026 229.9728 130.0983 15.26911453139992
TIANMU-1 16             
1 58701U 24004B   26195.87460676  .00002881  00000+0  11148-3 0  9994
2 58701  97.4614  21.2820 0004440 247.1231 112.9539 15.27014823140009
TIANMU-1 17             
1 58702U 24004C   26195.86008852  .00003037  00000+0  11737-3 0  9996
2 58702  97.4640  21.7626 0003906 253.6667 106.4142 15.27012768139999
TIANMU-1 18             
1 58703U 24004D   26195.83615774  .00002912  00000+0  11295-3 0  9991
2 58703  97.4658  22.0013 0003733 226.2071 133.8860 15.26927849139991
INSAT-3DS               
1 58990U 24033A   26195.78921748 -.00000164  00000+0  00000+0 0  9992
2 58990   0.0925 264.7764 0001053 224.9359 169.1209  1.00270923 47348
METEOR-M2 4             
1 59051U 24039A   26195.82782068 -.00000009  00000+0  15452-4 0  9992
2 59051  98.7025 154.7807 0008253  89.6684 270.5439 14.22432140123193
GOES 19                 
1 60133U 24119A   26195.75793972 -.00000257  00000+0  00000+0 0  9995
2 60133   0.0072 128.6667 0000425  85.6593 275.9494  1.00271581  7245
MTG-S1                  
1 64723U 25143A   26195.77285397 -.00000015  00000+0  00000+0 0  9993
2 64723   0.5846 345.0208 0003464 261.5494 323.8774  1.00273434  3693
METOP-SGA1              
1 65159U 25172A   26195.76442858  .00000019  00000+0  29163-4 0  9994
2 65159  98.6631 254.9090 0007099 333.3306  26.7504 14.19819127 47701
FENGYUN 3H              
1 65815U 25219A   26195.80470204  .00000007  00000+0  23672-4 0  9992
2 65815  98.6771 136.0376 0001158  62.6327 297.4968 14.19924781 41301
